[{"OBJECT_NAME":"OBJECT D","OBJECT_ID":"2024-092D","EPOCH":"2026-03-09T21:12:33.501312","MEAN_MOTION":15.33078357,"ECCENTRICITY":0.00083397,"INCLINATION":97.6418,"RA_OF_ASC_NODE":198.2302,"ARG_OF_PERICENTER":141.9853,"MEAN_ANOMALY":218.1979,"EPHEMERIS_TYPE":0,"CLASSIFICATION_TYPE":"U","NORAD_CAT_ID":59776,"ELEMENT_SET_NO":999,"REV_AT_EPOCH":10051,"BSTAR":0.00076511005,"MEAN_MOTION_DOT":0.00024443,"MEAN_MOTION_DDOT":0},{"OBJECT_NAME":"STARLINK-32268","OBJECT_ID":"2024-138T","EPOCH":"2026-03-09T21:17:09.861216","MEAN_MOTION":15.30215525,"ECCENTRICITY":0.00010002,"INCLINATION":53.1601,"RA_OF_ASC_NODE":308.9853,"ARG_OF_PERICENTER":81.4408,"MEAN_ANOMALY":278.6706,"EPHEMERIS_TYPE":0,"CLASSIFICATION_TYPE":"U","NORAD_CAT_ID":60372,"ELEMENT_SET_NO":999,"REV_AT_EPOCH":9065,"BSTAR":-0.00014555012,"MEAN_MOTION_DOT":-4.669e-5,"MEAN_MOTION_DDOT":0}]
